#dP2023  1 24 18  0  0.00000000      96 __u+U ITR00 EXT  IAC
## 2246 237600.00000000   900.00000000 59968 0.7500000000000
+  118   C06C07C08C09C10C11C12C13C14C19C20C21C22C23C24C25C26
+        C27C28C29C30C32C33C34C35C36C37C38C39C40C41C42C43C44
+        C45C46E01E02E03E04E05E07E08E09E10E11E12E13E14E15E18
+        E19E21E24E25E26E27E30E31E33E34E36G01G02G03G04G05G06
+        G07G08G09G10G11G12G13G14G15G16G17G18G19G20G21G22G23
+        G24G25G26G27G29G30G31G32J02J03J04R01R02R03R04R05R07
+        R08R09R11R12R13R14R15R16R17R18R19R20R21R22R24R25  0
++        10  8 11 11  8  9 10 11 10  8  8  7 10  9  7  8  8
++         9  7  9  9  8  8  8  8  9  9 11 11  8  8  9  7  9
++         8  9  7  8  7  8  7  8  8  8  8  8  8  7  8  7  8
++         9  8  8  8  7  8  7  7  8  7  8  7  8  7  8  7  7
++         8  8  8  7  7  8  7  8  7  6  7  8  8  7  7  8  8
++         7  8  7  8  8  8  7  8  9  8  9  9  8  7  8  9  9
++         8 10  9  8  8  7  7  9  8  8  9  9  8  8  7  7  0
%c M  cc GPS ccc cccc cccc cccc cccc ccccc ccccc ccccc ccccc
%c cc cc ccc ccc cccc cccc cccc cccc ccccc ccccc ccccc ccccc
%f  0.0000000  0.000000000  0.00000000000  0.000000000000000
%f  0.0000000  0.000000000  0.00000000000  0.000000000000000
%i    0    0    0    0      0      0      0      0         0
%i    0    0    0    0      0      0      0      0         0
/* IAC                                ULTRA-RAPID PREDICTION
/* S/V CLOCKS ARE ALIGNED TO GNSS TIME                      
/* G:C1WC2W R:C1PC2P E:C1XC5X C:C2IC6I J:C1CC2S             
/* PCV:IGS20_2239 OL/AL:FES2004  NONE     YN ORB:CoN CLK:CoN
*  2023 01 25  6 15  0.00000000
PC06 -18364.509654  34041.261273  16452.702421   -187.778323
PC07  -3068.505454  37471.645523  19274.710985    -33.521150
PC08  -5760.828593  19895.051671 -36711.192799    527.834675
PC09 -11358.524686  32763.997894  23991.859418    401.660580
PC10   2085.072392  39765.210953  14880.271604     25.384589
PC11  18668.968734  -1780.199767 -20587.359992   -158.534590
PC12   6835.147827  15279.695500 -22285.786099    415.766031
PC13   -285.578626  22357.214007 -35560.215806    191.636932
PC14  18217.809050   8087.869652  19570.536321    405.094464
PC19 -15835.629748   2608.229592 -22801.491533   -895.774310
PC20 -17758.959296 -15874.572420 -14505.981143    753.050475
PC21   9065.852617  26206.138876  -3194.547521   -914.524624
PC22  -4707.395959  20508.587550 -18338.833610   -667.822426
PC23  14006.840584 -13113.364201 -20265.082408   -872.955957
PC24  23524.847010  10462.657616  10706.821474   -496.883040
PC25  26556.465379  -3312.147807  -7879.625924     61.018921
PC26   8392.067372  16061.587143  21193.417650    -69.185795
PC27    213.253305 -21180.839449  18159.640291     86.717615
PC28  14409.443472 -23576.918497   3916.534690     62.821550
PC29 -20621.310013  12381.802214  14142.006772     72.047204
PC30 -14446.485510  -7053.558745  22804.605864      1.268004
PC32  -9181.239313 -26141.692776   3320.777876   -640.342476
PC33  15907.321894  -2588.704195  22788.481476   -877.799790
PC34  15255.509974   5817.194224 -22641.904484     91.253127
PC35 -14366.065901  23752.422471  -2643.370130    691.870756
PC36 -26862.362841   2229.726814   7261.998650   -670.972156
PC37  -6498.887743 -16389.268022 -21632.418816   -838.115915
PC38 -15457.994648  19352.500477 -34097.274767     54.264121
PC39 -22981.456890  34254.917951   8142.258904     -1.547688
PC40  -6943.494900  34661.120284  23129.923275    -13.388184
PC41   5156.675630 -20083.744233  18729.935370   -533.207883
PC42  17621.498931  16919.367885  13549.970424   -875.504702
PC43  20721.843041 -11580.839886 -14697.616277      3.810399
PC44    530.700638  21313.951772 -17995.577756    188.069598
PC45 -13629.515429  13146.200361  20498.027266    -51.881119
PC46 -24612.901184  -9465.470637  -9206.547419    -28.776946
PE01  17025.608279  21987.343961  10117.375877   -598.116491
PE02 -17334.998575 -21931.495187  -9776.669514     16.764934
PE03  -7580.424693 -24256.219458 -15177.960022   -643.330878
PE04  16275.185762   5786.407692  24041.372574    -43.626358
PE05   5793.926273 -28890.934805   2842.378724   -101.862670
PE07 -15604.680959  16508.579622 -18975.793680    -17.796060
PE08 -16118.739498  -5869.391640 -24124.183742    -25.061464
PE09  15517.191570 -16353.477731  19178.101578   -812.224231
PE10  27931.249492  -7036.173269  -6817.981105   -507.538178
PE11  26047.238935 -13556.122228   3802.280252    606.563627
PE12  25365.026926    126.972153 -15269.860017   -396.980607
PE13 -26369.274947  13116.709100  -2908.558586    429.717746
PE14  13221.102000 -20562.215615  -9162.490289    123.116485
PE15 -25163.145855   -308.435335  15590.459557    691.865657
PE18  -5248.848046  30492.081287  -3671.130372   -469.344502
PE19   5736.803294  25893.162201  13141.623188  -3401.647611
PE21    217.966038  19457.716581  22295.446022   -508.243987
PE24  18727.757543  -4950.657767 -22391.416131  -1076.943828
PE25     91.608850 -19328.287510 -22422.293582   -597.926312
PE26 -11250.537136  18791.092699 -19901.453720  -1841.335034
PE27 -18101.254693   5688.649709  22720.259412   -495.984677
PE30 -25528.229646 -11903.439452   9121.591715  -1188.023595
PE31  25560.055291  11274.098955  -9766.296816   -514.225437
PE33   9128.594205  13436.275140 -24735.921566   -453.502671
PE34  -9324.441112 -13343.570965  24723.161992    -26.598714
PE36  12113.143277 -18706.205325  19494.853669     -2.392044
PG01    -32.447299  15232.143863 -22028.610323    220.257989
PG02  -3898.869767 -15008.962023  22209.781144   -625.209421
PG03   8824.578316  20647.243794 -14396.491431   -369.808834
PG04    606.086947  24925.399062   9000.115953    -41.717162
PG05   5595.536485 -14496.591659  21355.706656   -113.302274
PG06  25637.039564  -5164.090487  -4836.399792    563.631653
PG07  15379.892314   9818.549654  19888.282043    253.029846
PG08  -6347.291941  25412.849498   2796.775853   -105.250857
PG09   9238.782936  17851.869766  17260.480745   -230.444773
PG10 -22248.552846  -9171.673320 -11411.963991    -21.843637
PG11  22137.679395 -12169.121763   8158.364789    -86.944126
PG12  -5896.766253 -21062.508424 -15417.913685   -332.208588
PG13  13228.942354 -21386.187310   8064.437914    465.092151
PG14  22100.888332  11444.878622  -9444.662640    -42.250508
PG15   3000.359140 -26127.871067   1962.193492      7.588100
PG16  -9952.968139  11200.809763  21618.464568   -522.734356
PG17  13993.899224   4465.671620 -21692.238534    695.706527
PG18 -17896.882061  -7333.330442  18271.123138   -112.917728
PG19  16308.003721  -7062.415654 -19878.275793    268.692106
PG20  15819.131772  -7197.187966  20057.973269    454.915885
PG21  -8585.668959  17085.522111 -17479.195081    153.658500
PG22 -15904.443891  11306.272174 -17506.394581    413.113439
PG23 -20894.131783 -16503.806849   -848.110347      3.582024
PG24   3523.996035 -17571.455190 -19826.825400    -44.905913
PG25 -14847.799815 -20638.402586  -8473.126188    414.307785
PG26 -19649.544399   1518.554803  17846.685064    240.778525
PG27 -12566.915002  19315.867387  12599.693773    118.645059
PG29  -5409.056137 -20504.952860  15896.512638   -582.373140
PG30  24049.846189   1102.655164  11592.338291   -532.345668
PG31 -25991.510761   5839.258443  -3182.428401   -207.308663
PG32 -15217.812758   -900.358282 -21578.267901   -375.064755
PJ02 -27126.691977  20803.486615  29713.940119     -0.671591
PJ03 -34468.901285  24291.213935   2253.325004     -0.004047
PJ04 -18944.227274  27219.404745 -20896.847771    120.311470
PR01   3136.057467  24472.977928  -6489.920935     21.855374
PR02  10323.822149  19835.674496  12252.350870    -23.310244
PR03  11685.686361   3456.458323  22445.533080     71.378850
PR04   6380.240260 -14335.903179  20144.793990    173.406048
PR05  -2195.149701 -24492.471876   6847.236195    106.713959
PR07 -11556.496696  -2745.901827 -22540.593905     48.636725
PR08  -6298.005135  14523.524579 -19931.939356    -69.154532
PR09 -19845.430422 -11287.062050 -11287.299953    100.442925
PR11 -16032.389283   4893.341611  19227.397283      2.984721
PR12   3254.117304  12088.386704  22239.106615     24.563749
PR13  18666.162388  11719.153722  12814.057140    -31.298320
PR14  24480.677090   4171.700274  -5852.322122     24.286492
PR15  15192.647231  -5383.980828 -19757.449596     91.515581
PR16  -3012.200579 -11848.674604 -22381.269813     10.415671
PR17  18314.704230  -6826.015869 -16356.872732    598.845729
PR18  19177.787936 -16833.242632   -999.866138     63.496750
PR19  11582.237495 -18047.793286  13819.240324   -219.456597
PR20  -6238.298100  -8279.453684  23320.599248    -86.474541
PR21 -18905.887041   8051.757139  15132.859940   -368.092313
PR22 -19548.876109  16371.024714    234.292856     68.131050
PR24   7373.082375   7912.905304 -23079.349220    141.992623
PR25 -18656.474726   5518.596416  16515.348429     52.542151
EOF
